[
  {
    "OBJECT_NAME": "STARLINK-4211",
    "OBJECT_ID": "2022-062AV",
    "EPOCH": "2023-10-31T21:26:18.780288",
    "MEAN_MOTION": 15.08821788,
    "ECCENTRICITY": 0.0001655,
    "INCLINATION": 53.2174,
    "RA_OF_ASC_NODE": 273.8991,
    "ARG_OF_PERICENTER": 90.1538,
    "MEAN_ANOMALY": 269.9644,
    "EPHEMERIS_TYPE": 0,
    "CLASSIFICATION_TYPE": "U",
    "NORAD_CAT_ID": 52873,
    "ELEMENT_SET_NO": 999,
    "REV_AT_EPOCH": 7675,
    "BSTAR": 0.000724,
    "MEAN_MOTION_DOT": 0.00011248,
    "MEAN_MOTION_DDOT": 0
  },
  {
    "OBJECT_NAME": "STARLINK-4210",
    "OBJECT_ID": "2022-062AW",
    "EPOCH": "2023-10-31T05:48:20.271456",
    "MEAN_MOTION": 15.08837122,
    "ECCENTRICITY": 0.0001574,
    "INCLINATION": 53.217,
    "RA_OF_ASC_NODE": 276.8206,
    "ARG_OF_PERICENTER": 92.7689,
    "MEAN_ANOMALY": 267.3483,
    "EPHEMERIS_TYPE": 0,
    "CLASSIFICATION_TYPE": "U",
    "NORAD_CAT_ID": 52874,
    "ELEMENT_SET_NO": 999,
    "REV_AT_EPOCH": 7616,
    "BSTAR": -3.3494e-5,
    "MEAN_MOTION_DOT": -8.21e-6,
    "MEAN_MOTION_DDOT": 0
  },
  {
    "OBJECT_NAME": "STARLINK-4193",
    "OBJECT_ID": "2022-062AX",
    "EPOCH": "2023-10-31T05:27:08.145504",
    "MEAN_MOTION": 15.08842384,
    "ECCENTRICITY": 0.0001408,
    "INCLINATION": 53.2162,
    "RA_OF_ASC_NODE": 276.887,
    "ARG_OF_PERICENTER": 96.7216,
    "MEAN_ANOMALY": 263.3936,
    "EPHEMERIS_TYPE": 0,
    "CLASSIFICATION_TYPE": "U",
    "NORAD_CAT_ID": 52875,
    "ELEMENT_SET_NO": 999,
    "REV_AT_EPOCH": 7616,
    "BSTAR": 4.154e-5,
    "MEAN_MOTION_DOT": 3.73e-6,
    "MEAN_MOTION_DDOT": 0
  },
  {
    "OBJECT_NAME": "STARLINK-4200",
    "OBJECT_ID": "2022-062AY",
    "EPOCH": "2023-10-31T08:48:30.848544",
    "MEAN_MOTION": 15.08840265,
    "ECCENTRICITY": 0.0001615,
    "INCLINATION": 53.218,
    "RA_OF_ASC_NODE": 276.2601,
    "ARG_OF_PERICENTER": 96.5299,
    "MEAN_ANOMALY": 263.5877,
    "EPHEMERIS_TYPE": 0,
    "CLASSIFICATION_TYPE": "U",
    "NORAD_CAT_ID": 52876,
    "ELEMENT_SET_NO": 999,
    "REV_AT_EPOCH": 7618,
    "BSTAR": -1.8547e-5,
    "MEAN_MOTION_DOT": -5.83e-6,
    "MEAN_MOTION_DDOT": 0
  },
  {
    "OBJECT_NAME": "STARLINK-4214",
    "OBJECT_ID": "2022-062AZ",
    "EPOCH": "2023-10-31T04:50:02.644800",
    "MEAN_MOTION": 15.08843062,
    "ECCENTRICITY": 0.0001688,
    "INCLINATION": 53.2176,
    "RA_OF_ASC_NODE": 276.9979,
    "ARG_OF_PERICENTER": 99.5253,
    "MEAN_ANOMALY": 260.593,
    "EPHEMERIS_TYPE": 0,
    "CLASSIFICATION_TYPE": "U",
    "NORAD_CAT_ID": 52877,
    "ELEMENT_SET_NO": 999,
    "REV_AT_EPOCH": 7616,
    "BSTAR": 7.4142e-5,
    "MEAN_MOTION_DOT": 8.92e-6,
    "MEAN_MOTION_DDOT": 0
  },
  {
    "OBJECT_NAME": "STARLINK-4171",
    "OBJECT_ID": "2022-062BA",
    "EPOCH": "2023-10-31T08:32:36.352320",
    "MEAN_MOTION": 15.08848958,
    "ECCENTRICITY": 0.0001644,
    "INCLINATION": 53.2177,
    "RA_OF_ASC_NODE": 276.3079,
    "ARG_OF_PERICENTER": 100.5552,
    "MEAN_ANOMALY": 259.5625,
    "EPHEMERIS_TYPE": 0,
    "CLASSIFICATION_TYPE": "U",
    "NORAD_CAT_ID": 52878,
    "ELEMENT_SET_NO": 999,
    "REV_AT_EPOCH": 7618,
    "BSTAR": 0.00016218,
    "MEAN_MOTION_DOT": 2.295e-5,
    "MEAN_MOTION_DDOT": 0
  },
  {
    "OBJECT_NAME": "STARLINK-4139",
    "OBJECT_ID": "2022-062BB",
    "EPOCH": "2023-10-31T15:41:51.062208",
    "MEAN_MOTION": 15.08837965,
    "ECCENTRICITY": 0.000176,
    "INCLINATION": 53.2175,
    "RA_OF_ASC_NODE": 274.9699,
    "ARG_OF_PERICENTER": 90.7004,
    "MEAN_ANOMALY": 269.419,
    "EPHEMERIS_TYPE": 0,
    "CLASSIFICATION_TYPE": "U",
    "NORAD_CAT_ID": 52879,
    "ELEMENT_SET_NO": 999,
    "REV_AT_EPOCH": 7672,
    "BSTAR": 0.00022628,
    "MEAN_MOTION_DOT": 3.315e-5,
    "MEAN_MOTION_DDOT": 0
  },
  {
    "OBJECT_NAME": "STARLINK-4186",
    "OBJECT_ID": "2022-062BC",
    "EPOCH": "2023-10-31T07:50:13.198560",
    "MEAN_MOTION": 15.08843624,
    "ECCENTRICITY": 0.0001589,
    "INCLINATION": 53.2159,
    "RA_OF_ASC_NODE": 276.4383,
    "ARG_OF_PERICENTER": 91.4142,
    "MEAN_ANOMALY": 268.7032,
    "EPHEMERIS_TYPE": 0,
    "CLASSIFICATION_TYPE": "U",
    "NORAD_CAT_ID": 52880,
    "ELEMENT_SET_NO": 999,
    "REV_AT_EPOCH": 7618,
    "BSTAR": 0.00025153,
    "MEAN_MOTION_DOT": 3.718e-5,
    "MEAN_MOTION_DDOT": 0
  },
  {
    "OBJECT_NAME": "STARLINK-4192",
    "OBJECT_ID": "2022-062BD",
    "EPOCH": "2023-10-31T08:49:57.478368",
    "MEAN_MOTION": 15.08835108,
    "ECCENTRICITY": 0.0001658,
    "INCLINATION": 53.2168,
    "RA_OF_ASC_NODE": 276.6481,
    "ARG_OF_PERICENTER": 84.964,
    "MEAN_ANOMALY": 275.1542,
    "EPHEMERIS_TYPE": 0,
    "CLASSIFICATION_TYPE": "U",
    "NORAD_CAT_ID": 52881,
    "ELEMENT_SET_NO": 999,
    "REV_AT_EPOCH": 7618,
    "BSTAR": -7.1151e-5,
    "MEAN_MOTION_DOT": -1.42e-5,
    "MEAN_MOTION_DDOT": 0
  },
  {
    "OBJECT_NAME": "STARLINK-4181",
    "OBJECT_ID": "2022-062BE",
    "EPOCH": "2023-10-31T04:35:32.075808",
    "MEAN_MOTION": 15.08830295,
    "ECCENTRICITY": 0.0001677,
    "INCLINATION": 53.2154,
    "RA_OF_ASC_NODE": 277.095,
    "ARG_OF_PERICENTER": 86.0625,
    "MEAN_ANOMALY": 274.0558,
    "EPHEMERIS_TYPE": 0,
    "CLASSIFICATION_TYPE": "U",
    "NORAD_CAT_ID": 52882,
    "ELEMENT_SET_NO": 999,
    "REV_AT_EPOCH": 7616,
    "BSTAR": -6.5163e-5,
    "MEAN_MOTION_DOT": -1.325e-5,
    "MEAN_MOTION_DDOT": 0
  },
  {
    "OBJECT_NAME": "STARLINK-4260",
    "OBJECT_ID": "2022-076A",
    "EPOCH": "2023-10-31T12:25:46.543584",
    "MEAN_MOTION": 15.08834665,
    "ECCENTRICITY": 0.0001897,
    "INCLINATION": 53.2196,
    "RA_OF_ASC_NODE": 355.5845,
    "ARG_OF_PERICENTER": 89.1504,
    "MEAN_ANOMALY": 270.9705,
    "EPHEMERIS_TYPE": 0,
    "CLASSIFICATION_TYPE": "U",
    "NORAD_CAT_ID": 52986,
    "ELEMENT_SET_NO": 999,
    "REV_AT_EPOCH": 7298,
    "BSTAR": -1.9677e-5,
    "MEAN_MOTION_DOT": -6.01e-6,
    "MEAN_MOTION_DDOT": 0
  },
  {
    "OBJECT_NAME": "STARLINK-4259",
    "OBJECT_ID": "2022-076B",
    "EPOCH": "2023-10-31T13:22:44.668416",
    "MEAN_MOTION": 15.08841281,
    "ECCENTRICITY": 0.0001541,
    "INCLINATION": 53.2176,
    "RA_OF_ASC_NODE": 5.4039,
    "ARG_OF_PERICENTER": 81.3591,
    "MEAN_ANOMALY": 278.7576,
    "EPHEMERIS_TYPE": 0,
    "CLASSIFICATION_TYPE": "U",
    "NORAD_CAT_ID": 52987,
    "ELEMENT_SET_NO": 999,
    "REV_AT_EPOCH": 7285,
    "BSTAR": 0.00058508,
    "MEAN_MOTION_DOT": 9.036e-5,
    "MEAN_MOTION_DDOT": 0
  },
  {
    "OBJECT_NAME": "STARLINK-4291",
    "OBJECT_ID": "2022-076C",
    "EPOCH": "2023-10-31T10:45:05.179104",
    "MEAN_MOTION": 15.0883399,
    "ECCENTRICITY": 0.000171,
    "INCLINATION": 53.2177,
    "RA_OF_ASC_NODE": 355.9001,
    "ARG_OF_PERICENTER": 89.7277,
    "MEAN_ANOMALY": 270.3912,
    "EPHEMERIS_TYPE": 0,
    "CLASSIFICATION_TYPE": "U",
    "NORAD_CAT_ID": 52988,
    "ELEMENT_SET_NO": 999,
    "REV_AT_EPOCH": 7297,
    "BSTAR": 0.00013973,
    "MEAN_MOTION_DOT": 1.936e-5,
    "MEAN_MOTION_DDOT": 0
  },
  {
    "OBJECT_NAME": "STARLINK-4293",
    "OBJECT_ID": "2022-076D",
    "EPOCH": "2023-10-31T11:42:03.553632",
    "MEAN_MOTION": 15.08840536,
    "ECCENTRICITY": 0.0001621,
    "INCLINATION": 53.2195,
    "RA_OF_ASC_NODE": 5.7231,
    "ARG_OF_PERICENTER": 97.2383,
    "MEAN_ANOMALY": 262.8794,
    "EPHEMERIS_TYPE": 0,
    "CLASSIFICATION_TYPE": "U",
    "NORAD_CAT_ID": 52989,
    "ELEMENT_SET_NO": 999,
    "REV_AT_EPOCH": 7331,
    "BSTAR": -0.0001041,
    "MEAN_MOTION_DOT": -1.944e-5,
    "MEAN_MOTION_DDOT": 0
  }
]
