STARLINK-4211           
1 52873U 22062AV  23304.89327292  .00011248  00000+0  72400-3 0  9992
2 52873  53.2174 273.8991 0001655  90.1538 269.9644 15.08821788 76754
STARLINK-4210           
1 52874U 22062AW  23304.24190129 -.00000821  00000+0 -33494-4 0  9997
2 52874  53.2170 276.8206 0001574  92.7689 267.3483 15.08837122 76165
STARLINK-4193           
1 52875U 22062AX  23304.22717761  .00000373  00000+0  41540-4 0  9994
2 52875  53.2162 276.8870 0001408  96.7216 263.3936 15.08842384 76165
STARLINK-4200           
1 52876U 22062AY  23304.36702371 -.00000583  00000+0 -18547-4 0  9997
2 52876  53.2180 276.2601 0001615  96.5299 263.5877 15.08840265 76185
STARLINK-4214           
1 52877U 22062AZ  23304.20141950  .00000892  00000+0  74142-4 0  9995
2 52877  53.2176 276.9979 0001688  99.5253 260.5930 15.08843062 76162
STARLINK-4171           
1 52878U 22062BA  23304.35597630  .00002295  00000+0  16218-3 0  9990
2 52878  53.2177 276.3079 0001644 100.5552 259.5625 15.08848958 76186
STARLINK-4139           
1 52879U 22062BB  23304.65406322  .00003315  00000+0  22628-3 0  9997
2 52879  53.2175 274.9699 0001760  90.7004 269.4190 15.08837965 76721
STARLINK-4186           
1 52880U 22062BC  23304.32654165  .00003718  00000+0  25153-3 0  9996
2 52880  53.2159 276.4383 0001589  91.4142 268.7032 15.08843624 76188
STARLINK-4192           
1 52881U 22062BD  23304.36802637 -.00001420  00000+0 -71151-4 0  9990
2 52881  53.2168 276.6481 0001658  84.9640 275.1542 15.08835108 76183
STARLINK-4181           
1 52882U 22062BE  23304.19134347 -.00001325  00000+0 -65163-4 0  9998
2 52882  53.2154 277.0950 0001677  86.0625 274.0558 15.08830295 76167
STARLINK-4260           
1 52986U 22076A   23304.51789981 -.00000601  00000+0 -19677-4 0  9999
2 52986  53.2196 355.5845 0001897  89.1504 270.9705 15.08834665 72987
STARLINK-4259           
1 52987U 22076B   23304.55746144  .00009036  00000+0  58508-3 0  9992
2 52987  53.2176   5.4039 0001541  81.3591 278.7576 15.08841281 72858
STARLINK-4291           
1 52988U 22076C   23304.44797661  .00001936  00000+0  13973-3 0  9999
2 52988  53.2177 355.9001 0001710  89.7277 270.3912 15.08833990 72976
STARLINK-4293           
1 52989U 22076D   23304.48754113 -.00001944  00000+0 -10410-3 0  9993
2 52989  53.2195   5.7231 0001621  97.2383 262.8794 15.08840536 73312
